[{"OBJECT_NAME":"STARLINK-37071","OBJECT_ID":"2026-050Z","EPOCH":"2026-04-09T06:28:04.955520","MEAN_MOTION":15.7891218,"ECCENTRICITY":0.00046683,"INCLINATION":53.1567,"RA_OF_ASC_NODE":128.3792,"ARG_OF_PERICENTER":176.2464,"MEAN_ANOMALY":183.8594,"EPHEMERIS_TYPE":0,"CLASSIFICATION_TYPE":"U","NORAD_CAT_ID":68190,"ELEMENT_SET_NO":999,"REV_AT_EPOCH":531,"BSTAR":0.0012034966,"MEAN_MOTION_DOT":0.00222324,"MEAN_MOTION_DDOT":0},{"OBJECT_NAME":"STARLINK-37091","OBJECT_ID":"2026-050AA","EPOCH":"2026-04-09T06:26:54.089376","MEAN_MOTION":15.78991773,"ECCENTRICITY":0.00027636,"INCLINATION":53.1565,"RA_OF_ASC_NODE":128.3736,"ARG_OF_PERICENTER":159.8785,"MEAN_ANOMALY":200.2347,"EPHEMERIS_TYPE":0,"CLASSIFICATION_TYPE":"U","NORAD_CAT_ID":68191,"ELEMENT_SET_NO":999,"REV_AT_EPOCH":531,"BSTAR":0.0017861547,"MEAN_MOTION_DOT":0.00335821,"MEAN_MOTION_DDOT":0},{"OBJECT_NAME":"STARLINK-37098","OBJECT_ID":"2026-050AB","EPOCH":"2026-04-09T06:00:02.000160","MEAN_MOTION":15.76820964,"ECCENTRICITY":0.00011796,"INCLINATION":53.1591,"RA_OF_ASC_NODE":128.4686,"ARG_OF_PERICENTER":93.8999,"MEAN_ANOMALY":158.6876,"EPHEMERIS_TYPE":0,"CLASSIFICATION_TYPE":"U","NORAD_CAT_ID":68192,"ELEMENT_SET_NO":999,"REV_AT_EPOCH":535,"BSTAR":-0.013626713,"MEAN_MOTION_DOT":-0.01943588,"MEAN_MOTION_DDOT":0},{"OBJECT_NAME":"STARLINK-37090","OBJECT_ID":"2026-050AC","EPOCH":"2026-04-09T06:00:02.000160","MEAN_MOTION":15.75734939,"ECCENTRICITY":0.00011274,"INCLINATION":53.1593,"RA_OF_ASC_NODE":128.4583,"ARG_OF_PERICENTER":88.9713,"MEAN_ANOMALY":167.849,"EPHEMERIS_TYPE":0,"CLASSIFICATION_TYPE":"U","NORAD_CAT_ID":68193,"ELEMENT_SET_NO":999,"REV_AT_EPOCH":535,"BSTAR":-0.014267729,"MEAN_MOTION_DOT":-0.01939263,"MEAN_MOTION_DDOT":0},{"OBJECT_NAME":"STARLINK-37093","OBJECT_ID":"2026-050AD","EPOCH":"2026-04-09T06:00:02.000160","MEAN_MOTION":15.76832028,"ECCENTRICITY":0.0001059,"INCLINATION":53.1589,"RA_OF_ASC_NODE":128.4946,"ARG_OF_PERICENTER":94.5073,"MEAN_ANOMALY":145.2914,"EPHEMERIS_TYPE":0,"CLASSIFICATION_TYPE":"U","NORAD_CAT_ID":68194,"ELEMENT_SET_NO":999,"REV_AT_EPOCH":535,"BSTAR":-0.01364223,"MEAN_MOTION_DOT":-0.01946218,"MEAN_MOTION_DDOT":0},{"OBJECT_NAME":"STARLINK-37058","OBJECT_ID":"2026-050AE","EPOCH":"2026-04-09T06:00:02.000160","MEAN_MOTION":15.75316012,"ECCENTRICITY":0.00011098,"INCLINATION":53.1594,"RA_OF_ASC_NODE":128.4711,"ARG_OF_PERICENTER":87.0881,"MEAN_ANOMALY":163.5258,"EPHEMERIS_TYPE":0,"CLASSIFICATION_TYPE":"U","NORAD_CAT_ID":68195,"ELEMENT_SET_NO":999,"REV_AT_EPOCH":535,"BSTAR":-0.014527583,"MEAN_MOTION_DOT":-0.01938354,"MEAN_MOTION_DDOT":0},{"OBJECT_NAME":"YAOGAN-50 02","OBJECT_ID":"2026-051A","EPOCH":"2026-04-09T06:21:30.770208","MEAN_MOTION":13.83261902,"ECCENTRICITY":7.209e-5,"INCLINATION":141.9858,"RA_OF_ASC_NODE":354.7492,"ARG_OF_PERICENTER":267.0761,"MEAN_ANOMALY":92.9877,"EPHEMERIS_TYPE":0,"CLASSIFICATION_TYPE":"U","NORAD_CAT_ID":68196,"ELEMENT_SET_NO":999,"REV_AT_EPOCH":344,"BSTAR":8.2803458e-5,"MEAN_MOTION_DOT":2.78e-6,"MEAN_MOTION_DDOT":0},{"OBJECT_NAME":"2026-052A","OBJECT_ID":"2026-052A","EPOCH":"2026-04-09T08:09:17.914752","MEAN_MOTION":15.10142811,"ECCENTRICITY":0.00139841,"INCLINATION":97.5353,"RA_OF_ASC_NODE":175.2003,"ARG_OF_PERICENTER":178.2552,"MEAN_ANOMALY":181.8729,"EPHEMERIS_TYPE":0,"CLASSIFICATION_TYPE":"U","NORAD_CAT_ID":68198,"ELEMENT_SET_NO":999,"REV_AT_EPOCH":365,"BSTAR":0.00040394291,"MEAN_MOTION_DOT":6.541e-5,"MEAN_MOTION_DDOT":0},{"OBJECT_NAME":"YUXING-3 06","OBJECT_ID":"2026-052B","EPOCH":"2026-04-09T06:30:29.257344","MEAN_MOTION":15.10253418,"ECCENTRICITY":0.0013021,"INCLINATION":97.5355,"RA_OF_ASC_NODE":175.1379,"ARG_OF_PERICENTER":179.3988,"MEAN_ANOMALY":180.726,"EPHEMERIS_TYPE":0,"CLASSIFICATION_TYPE":"U","NORAD_CAT_ID":68199,"ELEMENT_SET_NO":999,"REV_AT_EPOCH":364,"BSTAR":0.00028682818,"MEAN_MOTION_DOT":4.638e-5,"MEAN_MOTION_DDOT":0},{"OBJECT_NAME":"2026-052C","OBJECT_ID":"2026-052C","EPOCH":"2026-04-09T06:27:39.173760","MEAN_MOTION":15.10357393,"ECCENTRICITY":0.00127572,"INCLINATION":97.535,"RA_OF_ASC_NODE":175.1415,"ARG_OF_PERICENTER":181.7226,"MEAN_ANOMALY":178.3962,"EPHEMERIS_TYPE":0,"CLASSIFICATION_TYPE":"U","NORAD_CAT_ID":68200,"ELEMENT_SET_NO":999,"REV_AT_EPOCH":363,"BSTAR":0.00024629226,"MEAN_MOTION_DOT":3.984e-5,"MEAN_MOTION_DDOT":0},{"OBJECT_NAME":"2026-052D","OBJECT_ID":"2026-052D","EPOCH":"2026-04-09T06:22:57.514944","MEAN_MOTION":15.10632102,"ECCENTRICITY":0.00120395,"INCLINATION":97.5352,"RA_OF_ASC_NODE":175.1434,"ARG_OF_PERICENTER":178.2025,"MEAN_ANOMALY":181.9251,"EPHEMERIS_TYPE":0,"CLASSIFICATION_TYPE":"U","NORAD_CAT_ID":68201,"ELEMENT_SET_NO":999,"REV_AT_EPOCH":364,"BSTAR":0.0002943325,"MEAN_MOTION_DOT":4.81e-5,"MEAN_MOTION_DDOT":0},{"OBJECT_NAME":"2026-052E","OBJECT_ID":"2026-052E","EPOCH":"2026-04-09T06:22:56.884224","MEAN_MOTION":15.10627578,"ECCENTRICITY":0.00118634,"INCLINATION":97.5352,"RA_OF_ASC_NODE":175.1466,"ARG_OF_PERICENTER":182.2249,"MEAN_ANOMALY":177.893,"EPHEMERIS_TYPE":0,"CLASSIFICATION_TYPE":"U","NORAD_CAT_ID":68202,"ELEMENT_SET_NO":999,"REV_AT_EPOCH":364,"BSTAR":0.00026398603,"MEAN_MOTION_DOT":4.306e-5,"MEAN_MOTION_DDOT":0},{"OBJECT_NAME":"2026-052F","OBJECT_ID":"2026-052F","EPOCH":"2026-04-09T06:17:06.185760","MEAN_MOTION":15.10889862,"ECCENTRICITY":0.00110245,"INCLINATION":97.5345,"RA_OF_ASC_NODE":175.1542,"ARG_OF_PERICENTER":174.6266,"MEAN_ANOMALY":185.5085,"EPHEMERIS_TYPE":0,"CLASSIFICATION_TYPE":"U","NORAD_CAT_ID":68203,"ELEMENT_SET_NO":999,"REV_AT_EPOCH":364,"BSTAR":0.00033733637,"MEAN_MOTION_DOT":5.561e-5,"MEAN_MOTION_DDOT":0},{"OBJECT_NAME":"2026-052G","OBJECT_ID":"2026-052G","EPOCH":"2026-04-09T06:16:00.554592","MEAN_MOTION":15.10934614,"ECCENTRICITY":0.00106116,"INCLINATION":97.5355,"RA_OF_ASC_NODE":175.1501,"ARG_OF_PERICENTER":177.0576,"MEAN_ANOMALY":183.0718,"EPHEMERIS_TYPE":0,"CLASSIFICATION_TYPE":"U","NORAD_CAT_ID":68204,"ELEMENT_SET_NO":999,"REV_AT_EPOCH":364,"BSTAR":0.00029127147,"MEAN_MOTION_DOT":4.798e-5,"MEAN_MOTION_DDOT":0}]
