STARLINK-37071          
1 68190U 26050Z   26099.26950180  .00222324  00000+0  12035-2 0  9991
2 68190  53.1567 128.3792 0004668 176.2464 183.8594 15.78912180  5318
STARLINK-37091          
1 68191U 26050AA  26099.26868159  .00335821  00000+0  17862-2 0  9996
2 68191  53.1565 128.3736 0002763 159.8785 200.2347 15.78991773  5317
STARLINK-37098          
1 68192U 26050AB  26099.25002315 -.01943588  00000+0 -13627-1 0  9992
2 68192  53.1591 128.4686 0001179  93.8999 158.6876 15.76820964  5354
STARLINK-37090          
1 68193U 26050AC  26099.25002315 -.01939263  00000+0 -14268-1 0  9990
2 68193  53.1593 128.4583 0001127  88.9713 167.8490 15.75734939  5354
STARLINK-37093          
1 68194U 26050AD  26099.25002315 -.01946218  00000+0 -13642-1 0  9994
2 68194  53.1589 128.4946 0001059  94.5073 145.2914 15.76832028  5359
STARLINK-37058          
1 68195U 26050AE  26099.25002315 -.01938354  00000+0 -14528-1 0  9991
2 68195  53.1594 128.4711 0001109  87.0881 163.5258 15.75316012  5359
YAOGAN-50 02            
1 68196U 26051A   26099.26493947  .00000278  00000+0  82803-4 0  9995
2 68196 141.9858 354.7492 0000720 267.0761  92.9877 13.83261902  3448
2026-052A               
1 68198U 26052A   26099.33979068  .00006541  00000+0  40394-3 0  9996
2 68198  97.5353 175.2003 0013984 178.2552 181.8729 15.10142811  3653
YUXING-3 06             
1 68199U 26052B   26099.27117196  .00004638  00000+0  28683-3 0  9998
2 68199  97.5355 175.1379 0013021 179.3988 180.7260 15.10253418  3641
2026-052C               
1 68200U 26052C   26099.26920340  .00003984  00000+0  24629-3 0  9992
2 68200  97.5350 175.1415 0012757 181.7226 178.3962 15.10357393  3635
2026-052D               
1 68201U 26052D   26099.26594346  .00004810  00000+0  29433-3 0  9993
2 68201  97.5352 175.1434 0012039 178.2025 181.9251 15.10632102  3646
2026-052E               
1 68202U 26052E   26099.26593616  .00004306  00000+0  26399-3 0  9991
2 68202  97.5352 175.1466 0011863 182.2249 177.8930 15.10627578  3648
2026-052F               
1 68203U 26052F   26099.26187715  .00005561  00000+0  33734-3 0  9996
2 68203  97.5345 175.1542 0011024 174.6266 185.5085 15.10889862  3642
2026-052G               
1 68204U 26052G   26099.26111753  .00004798  00000+0  29127-3 0  9998
2 68204  97.5355 175.1501 0010611 177.0576 183.0718 15.10934614  3643
